[
    {
        "Altitude(m)": 705463.9200817847,
        "Argument of Periapsis(deg)": 0.0011390121186627068,
        "Eccentricity": 0.0,
        "Inclination(deg)": 45.0,
        "Latitude(deg)": -10.80914600654335,
        "Longitude(deg)": -85.9965645341209,
        "Mean Anomaly(deg)": -15.210278335251928,
        "RAAN(deg)": 24.99892480585418,
        "Satellite Name": "Constellation 1 131",
        "Satellite Number": 131,
        "Semi-Major Axis(m)": 7083131.272910544,
        "Time(s)": 19
    },
    {
        "Altitude(m)": 705453.5692200062,
        "Argument of Periapsis(deg)": 0.0011989601249081123,
        "Eccentricity": 0.0,
        "Inclination(deg)": 45.0,
        "Latitude(deg)": -10.7667487023272,
        "Longitude(deg)": -85.9562919842467,
        "Mean Anomaly(deg)": -15.149577195002065,
        "RAAN(deg)": 24.99886821668861,
        "Satellite Name": "Constellation 1 131",
        "Satellite Number": 131,
        "Semi-Major Axis(m)": 7083131.272910544,
        "Time(s)": 20
    },
    {
        "Altitude(m)": 705443.2345589073,
        "Argument of Periapsis(deg)": 0.001258908131153518,
        "Eccentricity": 0.0,
        "Inclination(deg)": 45.0,
        "Latitude(deg)": -10.724344845918585,
        "Longitude(deg)": -85.91603174044113,
        "Mean Anomaly(deg)": -15.088876054752152,
        "RAAN(deg)": 24.998811627523043,
        "Satellite Name": "Constellation 1 131",
        "Satellite Number": 131,
        "Semi-Major Axis(m)": 7083131.272910544,
        "Time(s)": 21
    },
    {
        "Altitude(m)": 705432.916126945,
        "Argument of Periapsis(deg)": 0.0013188561373989236,
        "Eccentricity": 0.0,
        "Inclination(deg)": 45.0,
        "Latitude(deg)": -10.681934465072969,
        "Longitude(deg)": -85.87578391936388,
        "Mean Anomaly(deg)": -15.028174914502298,
        "RAAN(deg)": 24.99875503835747,
        "Satellite Name": "Constellation 1 131",
        "Satellite Number": 131,
        "Semi-Major Axis(m)": 7083131.272910544,
        "Time(s)": 22
    },
    {
        "Altitude(m)": 705422.6139524777,
        "Argument of Periapsis(deg)": 0.0013788041436443293,
        "Eccentricity": 0.0,
        "Inclination(deg)": 45.0,
        "Latitude(deg)": -10.639517587522434,
        "Longitude(deg)": -85.83554813340736,
        "Mean Anomaly(deg)": -14.967473774252335,
        "RAAN(deg)": 24.9986984491919,
        "Satellite Name": "Constellation 1 131",
        "Satellite Number": 131,
        "Semi-Major Axis(m)": 7083131.272910544,
        "Time(s)": 23
    },
    {
        "Altitude(m)": 705412.3280638075,
        "Argument of Periapsis(deg)": 0.001438752149889735,
        "Eccentricity": 0.0,
        "Inclination(deg)": 45.0,
        "Latitude(deg)": -10.597094240976093,
        "Longitude(deg)": -85.79532449927954,
        "Mean Anomaly(deg)": -14.906772634002476,
        "RAAN(deg)": 24.998641860026332,
        "Satellite Name": "Constellation 1 131",
        "Satellite Number": 131,
        "Semi-Major Axis(m)": 7083131.272910544,
        "Time(s)": 24
    },
    {
        "Altitude(m)": 705402.0584891428,
        "Argument of Periapsis(deg)": 0.0014987001561351404,
        "Eccentricity": 0.0,
        "Inclination(deg)": 45.0,
        "Latitude(deg)": -10.554664453119791,
        "Longitude(deg)": -85.75511296561486,
        "Mean Anomaly(deg)": -14.846071493752564,
        "RAAN(deg)": 24.998585270860765,
        "Satellite Name": "Constellation 1 131",
        "Satellite Number": 131,
        "Semi-Major Axis(m)": 7083131.272910544,
        "Time(s)": 25
    },
    {
        "Altitude(m)": 705391.8052566156,
        "Argument of Periapsis(deg)": 0.001558648162380546,
        "Eccentricity": 0.0,
        "Inclination(deg)": 45.0,
        "Latitude(deg)": -10.512228251616547,
        "Longitude(deg)": -85.71491348107183,
        "Mean Anomaly(deg)": -14.785370353502657,
        "RAAN(deg)": 24.998528681695195,
        "Satellite Name": "Constellation 1 131",
        "Satellite Number": 131,
        "Semi-Major Axis(m)": 7083131.272910544,
        "Time(s)": 26
    },
    {
        "Altitude(m)": 705381.5683942824,
        "Argument of Periapsis(deg)": 0.0016185961686259519,
        "Eccentricity": 0.0,
        "Inclination(deg)": 45.0,
        "Latitude(deg)": -10.469785664106471,
        "Longitude(deg)": -85.67472599433272,
        "Mean Anomaly(deg)": -14.724669213252696,
        "RAAN(deg)": 24.99847209252962,
        "Satellite Name": "Constellation 1 131",
        "Satellite Number": 131,
        "Semi-Major Axis(m)": 7083131.272910544,
        "Time(s)": 27
    },
    {
        "Altitude(m)": 705371.3479301233,
        "Argument of Periapsis(deg)": 0.0016785441748713573,
        "Eccentricity": 0.0,
        "Inclination(deg)": 45.0,
        "Latitude(deg)": -10.42733671820706,
        "Longitude(deg)": -85.63455045410363,
        "Mean Anomaly(deg)": -14.663968073002884,
        "RAAN(deg)": 24.998415503364054,
        "Satellite Name": "Constellation 1 131",
        "Satellite Number": 131,
        "Semi-Major Axis(m)": 7083131.272910544,
        "Time(s)": 28
    },
    {
        "Altitude(m)": 705361.1438920257,
        "Argument of Periapsis(deg)": 0.001738492181116763,
        "Eccentricity": 0.0,
        "Inclination(deg)": 45.0,
        "Latitude(deg)": -10.384881441512908,
        "Longitude(deg)": -85.59438680911401,
        "Mean Anomaly(deg)": -14.603266932752975,
        "RAAN(deg)": 24.998358914198484,
        "Satellite Name": "Constellation 1 131",
        "Satellite Number": 131,
        "Semi-Major Axis(m)": 7083131.272910544,
        "Time(s)": 29
    },
    {
        "Altitude(m)": 705350.9563078169,
        "Argument of Periapsis(deg)": 0.0017984401873621684,
        "Eccentricity": 0.0,
        "Inclination(deg)": 45.0,
        "Latitude(deg)": -10.342419861596234,
        "Longitude(deg)": -85.55423517621422,
        "Mean Anomaly(deg)": -14.542565792503067,
        "RAAN(deg)": 24.998302325032917,
        "Satellite Name": "Constellation 1 131",
        "Satellite Number": 131,
        "Semi-Major Axis(m)": 7083131.272910544,
        "Time(s)": 30
    },
    {
        "Altitude(m)": 705340.7852052306,
        "Argument of Periapsis(deg)": 0.0018583881936075745,
        "Eccentricity": 0.0,
        "Inclination(deg)": 45.0,
        "Latitude(deg)": -10.299952006006796,
        "Longitude(deg)": -85.51409516798668,
        "Mean Anomaly(deg)": -14.481864652253154,
        "RAAN(deg)": 24.998245735867346,
        "Satellite Name": "Constellation 1 131",
        "Satellite Number": 131,
        "Semi-Major Axis(m)": 7083131.272910544,
        "Time(s)": 31
    },
    {
        "Altitude(m)": 705330.6306119297,
        "Argument of Periapsis(deg)": 0.0019183361998529795,
        "Eccentricity": 0.0,
        "Inclination(deg)": 45.0,
        "Latitude(deg)": -10.257477902271976,
        "Longitude(deg)": -85.47396690132855,
        "Mean Anomaly(deg)": -14.421163512003245,
        "RAAN(deg)": 24.998189146701773,
        "Satellite Name": "Constellation 1 131",
        "Satellite Number": 131,
        "Semi-Major Axis(m)": 7083131.272910544,
        "Time(s)": 32
    },
    {
        "Altitude(m)": 705320.4925554956,
        "Argument of Periapsis(deg)": 0.0019782842060983856,
        "Eccentricity": 0.0,
        "Inclination(deg)": 45.0,
        "Latitude(deg)": -10.214997577896934,
        "Longitude(deg)": -85.43385032506325,
        "Mean Anomaly(deg)": -14.360462371753387,
        "RAAN(deg)": 24.998132557536206,
        "Satellite Name": "Constellation 1 131",
        "Satellite Number": 131,
        "Semi-Major Axis(m)": 7083131.272910544,
        "Time(s)": 33
    },
    {
        "Altitude(m)": 705310.3710634233,
        "Argument of Periapsis(deg)": 0.0020382322123437906,
        "Eccentricity": 0.0,
        "Inclination(deg)": 45.0,
        "Latitude(deg)": -10.172511060364599,
        "Longitude(deg)": -85.39374538803729,
        "Mean Anomaly(deg)": -14.299761231503476,
        "RAAN(deg)": 24.99807596837064,
        "Satellite Name": "Constellation 1 131",
        "Satellite Number": 131,
        "Semi-Major Axis(m)": 7083131.272910544,
        "Time(s)": 34
    },
    {
        "Altitude(m)": 705300.2661631372,
        "Argument of Periapsis(deg)": 0.002098180218589197,
        "Eccentricity": 0.0,
        "Inclination(deg)": 45.0,
        "Latitude(deg)": -10.130018377135952,
        "Longitude(deg)": -85.35365203912059,
        "Mean Anomaly(deg)": -14.239060091253565,
        "RAAN(deg)": 24.99801937920507,
        "Satellite Name": "Constellation 1 131",
        "Satellite Number": 131,
        "Semi-Major Axis(m)": 7083131.272910544,
        "Time(s)": 35
    },
    {
        "Altitude(m)": 705290.1778819786,
        "Argument of Periapsis(deg)": 0.002158128224834602,
        "Eccentricity": 0.0,
        "Inclination(deg)": 45.0,
        "Latitude(deg)": -10.087519555649994,
        "Longitude(deg)": -85.313570227206,
        "Mean Anomaly(deg)": -14.178358951003656,
        "RAAN(deg)": 24.9979627900395,
        "Satellite Name": "Constellation 1 131",
        "Satellite Number": 131,
        "Semi-Major Axis(m)": 7083131.272910544,
        "Time(s)": 36
    },
    {
        "Altitude(m)": 705280.1062472141,
        "Argument of Periapsis(deg)": 0.002218076231080008,
        "Eccentricity": 0.0,
        "Inclination(deg)": 45.0,
        "Latitude(deg)": -10.045014623323855,
        "Longitude(deg)": -85.27350006930651,
        "Mean Anomaly(deg)": -14.117657810753744,
        "RAAN(deg)": 24.997906200873928,
        "Satellite Name": "Constellation 1 131",
        "Satellite Number": 131,
        "Semi-Major Axis(m)": 7083131.272910544,
        "Time(s)": 37
    }
]